HIMAWARI-8              
1 40267U 14060A   24113.42801615 -.00000266  00000+0  00000+0 0  9991
2 40267   0.0348 147.5917 0000978 243.6605 114.4618  1.00274543 34884
